*******************************************************************************
Ephemeris / WWW_USER Tue Mar 27 20:24:28 2018 Pasadena, USA      / Horizons    
*******************************************************************************
Target body name: Hyperion (607)                  {source: sat389}
Center body name: Solar System Barycenter (0)     {source: DE431mx}
Center-site name: BODY CENTER
*******************************************************************************
Start time      : A.D. 2000-Jan-01 00:00:00.0000 TDB
Stop  time      : A.D. 2010-Jan-01 00:00:00.0000 TDB
Step-size       : 7200 minutes
*******************************************************************************
Center geodetic : 0.00000000,0.00000000,0.0000000 {E-lon(deg),Lat(deg),Alt(km)}
Center cylindric: 0.00000000,0.00000000,0.0000000 {E-lon(deg),Dxy(km),Dz(km)}
Center radii    : (undefined)                                                  
Output units    : AU-D                                                         
Output type     : GEOMETRIC cartesian states
Output format   : 2 (position and velocity)
Reference frame : ICRF/J2000.0                                                 
Coordinate systm: Ecliptic and Mean Equinox of Reference Epoch                 
*******************************************************************************
JDTDB
   X     Y     Z
   VX    VY    VZ
*******************************************************************************
$$SOE
2451544.500000000 = A.D. 2000-Jan-01 00:00:00.0000 TDB 
   6.403989765105494E+00  6.573285429523519E+00 -3.732343799852027E-01
  -7.092762102570482E-03  5.051935963545520E-03 -1.926012695113946E-04
2451549.500000000 = A.D. 2000-Jan-06 00:00:00.0000 TDB 
   6.370296141367287E+00  6.589701837026984E+00 -3.699469798332902E-01
  -5.672642122507470E-03  1.946148359205971E-03  1.216097963928595E-03
2451554.500000000 = A.D. 2000-Jan-11 00:00:00.0000 TDB 
   6.350060294082409E+00  6.598271417230171E+00 -3.641462890996570E-01
  -2.459389562586515E-03  2.066696497902986E-03  8.135760652555032E-04
2451559.500000000 = A.D. 2000-Jan-16 00:00:00.0000 TDB 
   6.341657233666366E+00  6.616127030594790E+00 -3.642886246280128E-01
  -1.823049499723546E-03  5.469336072507054E-03 -9.727478947373751E-04
2451564.500000000 = A.D. 2000-Jan-21 00:00:00.0000 TDB 
   6.321170240746139E+00  6.648205182467666E+00 -3.703666398874235E-01
  -6.517269197629840E-03  6.005088924058506E-03 -7.602122993978656E-04
2451569.500000000 = A.D. 2000-Jan-26 00:00:00.0000 TDB 
   6.286183120678446E+00  6.668831357847242E+00 -3.692030546689285E-01
  -6.468096267777740E-03  2.437497618477332E-03  1.023715339815045E-03
2451574.500000000 = A.D. 2000-Jan-31 00:00:00.0000 TDB 
   6.261451127237212E+00  6.677576839222419E+00 -3.631621500334550E-01
  -3.311295376818378E-03  1.636682184502815E-03  1.090853195221185E-03
2451579.500000000 = A.D. 2000-Feb-05 00:00:00.0000 TDB 
   6.251088861164027E+00  6.691106256467490E+00 -3.610623590312780E-01
  -1.449759370391160E-03  4.327387814025533E-03 -4.647674531300127E-04
2451584.500000000 = A.D. 2000-Feb-10 00:00:00.0000 TDB 
   6.236187157955394E+00  6.720978758426650E+00 -3.667522134366756E-01
  -5.397163854077615E-03  6.619639401048863E-03 -1.214392686873350E-03
2451589.500000000 = A.D. 2000-Feb-15 00:00:00.0000 TDB 
   6.202018002791651E+00  6.746098581554291E+00 -3.680766747422438E-01
  -7.072381793105263E-03  3.172485403710061E-03  6.885122095493112E-04
2451594.500000000 = A.D. 2000-Feb-20 00:00:00.0000 TDB 
   6.172977022197336E+00  6.756276873552842E+00 -3.624492007239223E-01
  -4.253916232615789E-03  1.458042259395988E-03  1.250687742484174E-03
2451599.500000000 = A.D. 2000-Feb-25 00:00:00.0000 TDB 
   6.159300724122865E+00  6.766520177781193E+00 -3.584914688254335E-01
  -1.572825910254804E-03  3.242835311232764E-03  6.576698924026175E-05
2451604.500000000 = A.D. 2000-Mar-01 00:00:00.0000 TDB 
   6.148443124617977E+00  6.792291294404884E+00 -3.626791494831864E-01
  -4.002306844598799E-03  6.652596619495601E-03 -1.404562956910661E-03
2451609.500000000 = A.D. 2000-Mar-06 00:00:00.0000 TDB 
   6.117396177275197E+00  6.821181207885734E+00 -3.663686354831274E-01
  -7.341654559098793E-03  4.089372580207336E-03  2.265111659233065E-04
2451614.500000000 = A.D. 2000-Mar-11 00:00:00.0000 TDB 
   6.084753636876790E+00  6.834008900866365E+00 -3.618423495389699E-01
  -5.213523385933007E-03  1.542154961100615E-03  1.279793890683871E-03
2451619.500000000 = A.D. 2000-Mar-16 00:00:00.0000 TDB 
   6.066783701877764E+00  6.842191814433083E+00 -3.565427764535256E-01
  -2.117208053406537E-03  2.324666205268442E-03  5.560831762487620E-04
2451624.500000000 = A.D. 2000-Mar-21 00:00:00.0000 TDB 
   6.057737136010055E+00  6.862638304794847E+00 -3.583819502182725E-01
  -2.644403243529755E-03  6.011917732344892E-03 -1.252169086218771E-03
2451629.500000000 = A.D. 2000-Mar-26 00:00:00.0000 TDB 
   6.031983183993339E+00  6.893718619690305E+00 -3.638686920061173E-01
  -7.169389661515622E-03  5.122696797570260E-03 -3.402578292345973E-04
2451634.500000000 = A.D. 2000-Mar-31 00:00:00.0000 TDB 
   5.996840632786996E+00  6.910272587614894E+00 -3.611013273873002E-01
  -6.107767150155386E-03  1.873980344214666E-03  1.177133470603493E-03
2451639.500000000 = A.D. 2000-Apr-05 00:00:00.0000 TDB 
   5.974273426365657E+00  6.917759566194410E+00 -3.551166653416573E-01
  -2.901628705505137E-03  1.695857760988717E-03  9.254582228171784E-04
2451644.500000000 = A.D. 2000-Apr-10 00:00:00.0000 TDB 
   5.964542917389110E+00  6.933118753022307E+00 -3.544683079488923E-01
  -1.820395223405392E-03  4.918757136525983E-03 -8.166880492799141E-04
2451649.500000000 = A.D. 2000-Apr-15 00:00:00.0000 TDB 
   5.944966192172621E+00  6.963748384515300E+00 -3.605164619247276E-01
  -6.397461114951351E-03  6.033069493301109E-03 -9.078757529740673E-04
2451654.500000000 = A.D. 2000-Apr-20 00:00:00.0000 TDB 
   5.909130286552644E+00  6.984817475332395E+00 -3.600945119113830E-01
  -6.871610692962181E-03  2.468239976881043E-03  9.285522043051995E-04
2451659.500000000 = A.D. 2000-Apr-25 00:00:00.0000 TDB 
   5.881935843811847E+00  6.992939068900329E+00 -3.540929402067308E-01
  -3.825685249793404E-03  1.337806652598487E-03  1.172688372586940E-03
2451664.500000000 = A.D. 2000-Apr-30 00:00:00.0000 TDB 
   5.869673941673578E+00  7.004111041733970E+00 -3.512192670711154E-01
  -1.597551665371988E-03  3.729946566906259E-03 -2.706380294674791E-04
2451669.500000000 = A.D. 2000-May-05 00:00:00.0000 TDB 
   5.855476738226324E+00  7.031774171329131E+00 -3.564799931988410E-01
  -5.135726634192764E-03  6.490049899680733E-03 -1.298415057763985E-03
2451674.500000000 = A.D. 2000-May-10 00:00:00.0000 TDB 
   5.821276834713401E+00  7.057242826047551E+00 -3.585890580792836E-01
  -7.366800806295316E-03  3.282733614867484E-03  5.408088556310387E-04
2451679.500000000 = A.D. 2000-May-15 00:00:00.0000 TDB 
   5.789932465060505E+00  7.067288528085956E+00 -3.532706121530247E-01
  -4.808774450222517E-03  1.257742662121406E-03  1.286027289142270E-03
2451684.500000000 = A.D. 2000-May-20 00:00:00.0000 TDB 
   5.773775102849098E+00  7.075502052185763E+00 -3.486493112862531E-01
  -1.909321566185608E-03  2.639344996733612E-03  2.812454952945474E-04
2451689.500000000 = A.D. 2000-May-25 00:00:00.0000 TDB 
   5.763081935029953E+00  7.098270659528398E+00 -3.519591614388996E-01
  -3.632235896501575E-03  6.288131428121490E-03 -1.382888081247455E-03
2451694.500000000 = A.D. 2000-May-30 00:00:00.0000 TDB 
   5.732940001143507E+00  7.127193505197475E+00 -3.563767744836437E-01
  -7.502653517996318E-03  4.265843790326860E-03  3.066247810430822E-05
2451699.500000000 = A.D. 2000-Jun-04 00:00:00.0000 TDB 
   5.698323722407610E+00  7.140318252625961E+00 -3.524150258969171E-01
  -5.750020334731181E-03  1.439822630399046E-03  1.262799563186580E-03
2451704.500000000 = A.D. 2000-Jun-09 00:00:00.0000 TDB 
   5.677684814785375E+00  7.147017480283474E+00 -3.467131894506824E-01
  -2.573223488252948E-03  1.827340627346706E-03  7.293436564731026E-04
2451709.500000000 = A.D. 2000-Jun-14 00:00:00.0000 TDB 
   5.667811372328162E+00  7.164360516534477E+00 -3.475266652128618E-01
  -2.423689425311016E-03  5.422673269585286E-03 -1.102999514054278E-03
2451714.500000000 = A.D. 2000-Jun-19 00:00:00.0000 TDB 
   5.643549964651609E+00  7.194537445366334E+00 -3.533368126618143E-01
  -7.102741031579610E-03  5.289702210741026E-03 -5.560325205625853E-04
2451719.500000000 = A.D. 2000-Jun-24 00:00:00.0000 TDB 
   5.607070980866453E+00  7.211791441167176E+00 -3.514082074665433E-01
  -6.607535511962330E-03  1.884640984688528E-03  1.098364473781813E-03
2451724.500000000 = A.D. 2000-Jun-29 00:00:00.0000 TDB 
   5.581741597852428E+00  7.218327964209315E+00 -3.452861497768785E-01
  -3.429115140081354E-03  1.295114540184128E-03  1.056247641261026E-03
2451729.500000000 = A.D. 2000-Jul-04 00:00:00.0000 TDB 
   5.570432593829886E+00  7.230827336734301E+00 -3.436624151535235E-01
  -1.817987189086441E-03  4.263148168445559E-03 -6.124141487353720E-04
2451734.500000000 = A.D. 2000-Jul-09 00:00:00.0000 TDB 
   5.552144227530889E+00  7.259572837982594E+00 -3.495234559740070E-01
  -6.149194312242780E-03  6.037307743710852E-03 -1.061477790215632E-03
2451739.500000000 = A.D. 2000-Jul-14 00:00:00.0000 TDB 
   5.515863658945539E+00  7.281261904389248E+00 -3.499978502790065E-01
  -7.255107359206227E-03  2.555758184147466E-03  7.978565633234901E-04
2451744.500000000 = A.D. 2000-Jul-19 00:00:00.0000 TDB 
   5.486113189019964E+00  7.288942327580574E+00 -3.441419761018691E-01
  -4.387676779607748E-03  1.052396620998639E-03  1.248002805519708E-03
2451749.500000000 = A.D. 2000-Jul-24 00:00:00.0000 TDB 
   5.471631029206242E+00  7.297672430148433E+00 -3.404424973330776E-01
  -1.812949725017255E-03  3.068179290972726E-03 -4.196974326741071E-05
